[{"OBJECT_NAME":"STARLINK-30327","OBJECT_ID":"2023-129K","EPOCH":"2026-03-09T12:25:28.993152","MEAN_MOTION":15.26626807,"ECCENTRICITY":0.00230309,"INCLINATION":42.9974,"RA_OF_ASC_NODE":85.9834,"ARG_OF_PERICENTER":70.832,"MEAN_ANOMALY":289.5022,"EPHEMERIS_TYPE":0,"CLASSIFICATION_TYPE":"U","NORAD_CAT_ID":57707,"ELEMENT_SET_NO":999,"REV_AT_EPOCH":14090,"BSTAR":0.00029313824,"MEAN_MOTION_DOT":7.635e-5,"MEAN_MOTION_DDOT":0},{"OBJECT_NAME":"STARLINK-36362","OBJECT_ID":"2026-005W","EPOCH":"2026-03-09T22:00:01.999584","MEAN_MOTION":15.28371267,"ECCENTRICITY":0.00025187,"INCLINATION":42.9994,"RA_OF_ASC_NODE":236.7845,"ARG_OF_PERICENTER":281.2971,"MEAN_ANOMALY":317.6523,"EPHEMERIS_TYPE":0,"CLASSIFICATION_TYPE":"U","NORAD_CAT_ID":67424,"ELEMENT_SET_NO":999,"REV_AT_EPOCH":590,"BSTAR":0.0027312751,"MEAN_MOTION_DOT":0.0007755,"MEAN_MOTION_DDOT":0}]
